STARLINK-36745          
1 68257U 26054AB  26089.25002315 -.01896945  00000+0 -12559-1 0  9994
2 68257  53.1591 209.4110 0001170  79.5709  93.8318 15.78005417  3213
STARLINK-36890          
1 68258U 26054AC  26089.25002315  .00060614  00000+0  30885-3 0  9992
2 68258  53.1589 209.3952 0001318 119.9803  61.2211 15.80847154  3218
STARLINK-36323          
1 68259U 26054AD  26089.25002315  .00062859  00000+0  32003-3 0  9990
2 68259  53.1589 209.4133 0001105  82.7265  89.9258 15.80849936  3256
STARLINK-37056          
1 68260U 26054AE  26089.25002315  .00128265  00000+0  64548-3 0  9995
2 68260  53.1590 209.3865 0001016  88.7211  96.7570 15.80815730  3213
TEN-KOH 2               
1 68261U 25241B   26089.09725823  .00012314  00000+0  53304-3 0  9996
2 68261  51.6392 335.8383 0004469 230.2647 129.7937 15.22777424  2855
STARLINK-37162          
1 68262U 26055A   26089.25002315 -.01128873  38154-3 -33098-2 0  9996
2 68262  53.1581 234.4500 0000793  68.7570 185.7504 15.92079022  2941
STARLINK-37156          
1 68263U 26055B   26089.25002315 -.01128431  38161-3 -32928-2 0  9996
2 68263  53.1579 234.4442 0000755  72.7321 184.7168 15.92170148  2947
STARLINK-37163          
1 68264U 26055C   26089.25002315 -.01134865  38622-3 -32820-2 0  9998
2 68264  53.1579 234.4285 0000784  71.5828 193.1153 15.92344022  2946
STARLINK-37133          
1 68265U 26055D   26089.25002315 -.01131766  38398-3 -32881-2 0  9993
2 68265  53.1579 234.4363 0000863  73.0129 188.1361 15.92255287  2942
STARLINK-37042          
1 68266U 26055E   26089.25002315 -.01143866  39212-3 -32942-2 0  9992
2 68266  53.1577 234.4197 0000875  68.2109 200.9487 15.92425647  2944
STARLINK-37103          
1 68267U 26055F   26089.25002315 -.01151225  39706-3 -33001-2 0  9996
2 68267  53.1580 234.4115 0000719  71.1509 201.9249 15.92516004  2948
STARLINK-36999          
1 68268U 26055G   26089.25002315 -.01151785  39776-3 -32861-2 0  9998
2 68268  53.1578 234.4042 0000812  71.7116 204.9583 15.92606351  2948
