CCSDS_OMM_VERS = 2.0
CREATION_DATE  = 
ORIGINATOR     = 

OBJECT_NAME    = STARLINK-36745
OBJECT_ID      = 2026-054AB
CENTER_NAME    = EARTH
REF_FRAME      = TEME
TIME_SYSTEM    = UTC
MEAN_ELEMENT_THEORY = SGP/SGP4

EPOCH          = 2026-03-30T06:00:02.000160
MEAN_MOTION    = 15.78005417
ECCENTRICITY   = .00011706
INCLINATION    = 53.1591
RA_OF_ASC_NODE = 209.4110
ARG_OF_PERICENTER = 79.5709
MEAN_ANOMALY   = 93.8318

EPHEMERIS_TYPE = 0
CLASSIFICATION_TYPE = U
NORAD_CAT_ID   = 68257
ELEMENT_SET_NO = 999
REV_AT_EPOCH   = 321
BSTAR          = -.12559432E-1
MEAN_MOTION_DOT = -.1896945E-1
MEAN_MOTION_DDOT = 0

CCSDS_OMM_VERS = 2.0
CREATION_DATE  = 
ORIGINATOR     = 

OBJECT_NAME    = STARLINK-36890
OBJECT_ID      = 2026-054AC
CENTER_NAME    = EARTH
REF_FRAME      = TEME
TIME_SYSTEM    = UTC
MEAN_ELEMENT_THEORY = SGP/SGP4

EPOCH          = 2026-03-30T06:00:02.000160
MEAN_MOTION    = 15.80847154
ECCENTRICITY   = .00013181
INCLINATION    = 53.1589
RA_OF_ASC_NODE = 209.3952
ARG_OF_PERICENTER = 119.9803
MEAN_ANOMALY   = 61.2211

EPHEMERIS_TYPE = 0
CLASSIFICATION_TYPE = U
NORAD_CAT_ID   = 68258
ELEMENT_SET_NO = 999
REV_AT_EPOCH   = 321
BSTAR          = .30885005E-3
MEAN_MOTION_DOT = .60614E-3
MEAN_MOTION_DDOT = 0

CCSDS_OMM_VERS = 2.0
CREATION_DATE  = 
ORIGINATOR     = 

OBJECT_NAME    = STARLINK-36323
OBJECT_ID      = 2026-054AD
CENTER_NAME    = EARTH
REF_FRAME      = TEME
TIME_SYSTEM    = UTC
MEAN_ELEMENT_THEORY = SGP/SGP4

EPOCH          = 2026-03-30T06:00:02.000160
MEAN_MOTION    = 15.80849936
ECCENTRICITY   = .00011057
INCLINATION    = 53.1589
RA_OF_ASC_NODE = 209.4133
ARG_OF_PERICENTER = 82.7265
MEAN_ANOMALY   = 89.9258

EPHEMERIS_TYPE = 0
CLASSIFICATION_TYPE = U
NORAD_CAT_ID   = 68259
ELEMENT_SET_NO = 999
REV_AT_EPOCH   = 325
BSTAR          = .32003412E-3
MEAN_MOTION_DOT = .62859E-3
MEAN_MOTION_DDOT = 0

CCSDS_OMM_VERS = 2.0
CREATION_DATE  = 
ORIGINATOR     = 

OBJECT_NAME    = STARLINK-37056
OBJECT_ID      = 2026-054AE
CENTER_NAME    = EARTH
REF_FRAME      = TEME
TIME_SYSTEM    = UTC
MEAN_ELEMENT_THEORY = SGP/SGP4

EPOCH          = 2026-03-30T06:00:02.000160
MEAN_MOTION    = 15.80815730
ECCENTRICITY   = .00010163
INCLINATION    = 53.1590
RA_OF_ASC_NODE = 209.3865
ARG_OF_PERICENTER = 88.7211
MEAN_ANOMALY   = 96.7570

EPHEMERIS_TYPE = 0
CLASSIFICATION_TYPE = U
NORAD_CAT_ID   = 68260
ELEMENT_SET_NO = 999
REV_AT_EPOCH   = 321
BSTAR          = .64548017E-3
MEAN_MOTION_DOT = .128265E-2
MEAN_MOTION_DDOT = 0

CCSDS_OMM_VERS = 2.0
CREATION_DATE  = 
ORIGINATOR     = 

OBJECT_NAME    = TEN-KOH 2
OBJECT_ID      = 2025-241B
CENTER_NAME    = EARTH
REF_FRAME      = TEME
TIME_SYSTEM    = UTC
MEAN_ELEMENT_THEORY = SGP/SGP4

EPOCH          = 2026-03-30T02:20:03.111072
MEAN_MOTION    = 15.22777424
ECCENTRICITY   = .00044695
INCLINATION    = 51.6392
RA_OF_ASC_NODE = 335.8383
ARG_OF_PERICENTER = 230.2647
MEAN_ANOMALY   = 129.7937

EPHEMERIS_TYPE = 0
CLASSIFICATION_TYPE = U
NORAD_CAT_ID   = 68261
ELEMENT_SET_NO = 999
REV_AT_EPOCH   = 285
BSTAR          = .5330403E-3
MEAN_MOTION_DOT = .12314E-3
MEAN_MOTION_DDOT = 0

CCSDS_OMM_VERS = 2.0
CREATION_DATE  = 
ORIGINATOR     = 

OBJECT_NAME    = STARLINK-37162
OBJECT_ID      = 2026-055A
CENTER_NAME    = EARTH
REF_FRAME      = TEME
TIME_SYSTEM    = UTC
MEAN_ELEMENT_THEORY = SGP/SGP4

EPOCH          = 2026-03-30T06:00:02.000160
MEAN_MOTION    = 15.92079022
ECCENTRICITY   = .00007931
INCLINATION    = 53.1581
RA_OF_ASC_NODE = 234.4500
ARG_OF_PERICENTER = 68.7570
MEAN_ANOMALY   = 185.7504

EPHEMERIS_TYPE = 0
CLASSIFICATION_TYPE = U
NORAD_CAT_ID   = 68262
ELEMENT_SET_NO = 999
REV_AT_EPOCH   = 294
BSTAR          = -.33097855E-2
MEAN_MOTION_DOT = -.1128873E-1
MEAN_MOTION_DDOT = .38154231E-3

CCSDS_OMM_VERS = 2.0
CREATION_DATE  = 
ORIGINATOR     = 

OBJECT_NAME    = STARLINK-37156
OBJECT_ID      = 2026-055B
CENTER_NAME    = EARTH
REF_FRAME      = TEME
TIME_SYSTEM    = UTC
MEAN_ELEMENT_THEORY = SGP/SGP4

EPOCH          = 2026-03-30T06:00:02.000160
MEAN_MOTION    = 15.92170148
ECCENTRICITY   = .00007553
INCLINATION    = 53.1579
RA_OF_ASC_NODE = 234.4442
ARG_OF_PERICENTER = 72.7321
MEAN_ANOMALY   = 184.7168

EPHEMERIS_TYPE = 0
CLASSIFICATION_TYPE = U
NORAD_CAT_ID   = 68263
ELEMENT_SET_NO = 999
REV_AT_EPOCH   = 294
BSTAR          = -.32928471E-2
MEAN_MOTION_DOT = -.1128431E-1
MEAN_MOTION_DDOT = .38160888E-3

CCSDS_OMM_VERS = 2.0
CREATION_DATE  = 
ORIGINATOR     = 

OBJECT_NAME    = STARLINK-37163
OBJECT_ID      = 2026-055C
CENTER_NAME    = EARTH
REF_FRAME      = TEME
TIME_SYSTEM    = UTC
MEAN_ELEMENT_THEORY = SGP/SGP4

EPOCH          = 2026-03-30T06:00:02.000160
MEAN_MOTION    = 15.92344022
ECCENTRICITY   = .0000784
INCLINATION    = 53.1579
RA_OF_ASC_NODE = 234.4285
ARG_OF_PERICENTER = 71.5828
MEAN_ANOMALY   = 193.1153

EPHEMERIS_TYPE = 0
CLASSIFICATION_TYPE = U
NORAD_CAT_ID   = 68264
ELEMENT_SET_NO = 999
REV_AT_EPOCH   = 294
BSTAR          = -.32819694E-2
MEAN_MOTION_DOT = -.1134865E-1
MEAN_MOTION_DDOT = .38622241E-3

CCSDS_OMM_VERS = 2.0
CREATION_DATE  = 
ORIGINATOR     = 

OBJECT_NAME    = STARLINK-37133
OBJECT_ID      = 2026-055D
CENTER_NAME    = EARTH
REF_FRAME      = TEME
TIME_SYSTEM    = UTC
MEAN_ELEMENT_THEORY = SGP/SGP4

EPOCH          = 2026-03-30T06:00:02.000160
MEAN_MOTION    = 15.92255287
ECCENTRICITY   = .00008635
INCLINATION    = 53.1579
RA_OF_ASC_NODE = 234.4363
ARG_OF_PERICENTER = 73.0129
MEAN_ANOMALY   = 188.1361

EPHEMERIS_TYPE = 0
CLASSIFICATION_TYPE = U
NORAD_CAT_ID   = 68265
ELEMENT_SET_NO = 999
REV_AT_EPOCH   = 294
BSTAR          = -.32880542E-2
MEAN_MOTION_DOT = -.1131766E-1
MEAN_MOTION_DDOT = .38397729E-3

CCSDS_OMM_VERS = 2.0
CREATION_DATE  = 
ORIGINATOR     = 

OBJECT_NAME    = STARLINK-37042
OBJECT_ID      = 2026-055E
CENTER_NAME    = EARTH
REF_FRAME      = TEME
TIME_SYSTEM    = UTC
MEAN_ELEMENT_THEORY = SGP/SGP4

EPOCH          = 2026-03-30T06:00:02.000160
MEAN_MOTION    = 15.92425647
ECCENTRICITY   = .00008752
INCLINATION    = 53.1577
RA_OF_ASC_NODE = 234.4197
ARG_OF_PERICENTER = 68.2109
MEAN_ANOMALY   = 200.9487

EPHEMERIS_TYPE = 0
CLASSIFICATION_TYPE = U
NORAD_CAT_ID   = 68266
ELEMENT_SET_NO = 999
REV_AT_EPOCH   = 294
BSTAR          = -.32942042E-2
MEAN_MOTION_DOT = -.1143866E-1
MEAN_MOTION_DDOT = .39211537E-3

CCSDS_OMM_VERS = 2.0
CREATION_DATE  = 
ORIGINATOR     = 

OBJECT_NAME    = STARLINK-37103
OBJECT_ID      = 2026-055F
CENTER_NAME    = EARTH
REF_FRAME      = TEME
TIME_SYSTEM    = UTC
MEAN_ELEMENT_THEORY = SGP/SGP4

EPOCH          = 2026-03-30T06:00:02.000160
MEAN_MOTION    = 15.92516004
ECCENTRICITY   = .00007193
INCLINATION    = 53.1580
RA_OF_ASC_NODE = 234.4115
ARG_OF_PERICENTER = 71.1509
MEAN_ANOMALY   = 201.9249

EPHEMERIS_TYPE = 0
CLASSIFICATION_TYPE = U
NORAD_CAT_ID   = 68267
ELEMENT_SET_NO = 999
REV_AT_EPOCH   = 294
BSTAR          = -.33000659E-2
MEAN_MOTION_DOT = -.1151225E-1
MEAN_MOTION_DDOT = .39705916E-3

CCSDS_OMM_VERS = 2.0
CREATION_DATE  = 
ORIGINATOR     = 

OBJECT_NAME    = STARLINK-36999
OBJECT_ID      = 2026-055G
CENTER_NAME    = EARTH
REF_FRAME      = TEME
TIME_SYSTEM    = UTC
MEAN_ELEMENT_THEORY = SGP/SGP4

EPOCH          = 2026-03-30T06:00:02.000160
MEAN_MOTION    = 15.92606351
ECCENTRICITY   = .00008122
INCLINATION    = 53.1578
RA_OF_ASC_NODE = 234.4042
ARG_OF_PERICENTER = 71.7116
MEAN_ANOMALY   = 204.9583

EPHEMERIS_TYPE = 0
CLASSIFICATION_TYPE = U
NORAD_CAT_ID   = 68268
ELEMENT_SET_NO = 999
REV_AT_EPOCH   = 294
BSTAR          = -.32861156E-2
MEAN_MOTION_DOT = -.1151785E-1
MEAN_MOTION_DDOT = .39776095E-3

